[{"OBJECT_NAME":"TIANQI-3","OBJECT_ID":"2019-032E","EPOCH":"2026-03-09T17:33:23.759136","MEAN_MOTION":15.35231484,"ECCENTRICITY":0.00047367,"INCLINATION":45.0009,"RA_OF_ASC_NODE":170.4729,"ARG_OF_PERICENTER":128.7336,"MEAN_ANOMALY":231.3974,"EPHEMERIS_TYPE":0,"CLASSIFICATION_TYPE":"U","NORAD_CAT_ID":44314,"ELEMENT_SET_NO":999,"REV_AT_EPOCH":37277,"BSTAR":0.0006563115,"MEAN_MOTION_DOT":0.00022657,"MEAN_MOTION_DDOT":0},{"OBJECT_NAME":"STARLINK-30850","OBJECT_ID":"2023-171T","EPOCH":"2026-03-09T22:00:01.999584","MEAN_MOTION":15.23185969,"ECCENTRICITY":0.00015695,"INCLINATION":43.0008,"RA_OF_ASC_NODE":283.6898,"ARG_OF_PERICENTER":287.5987,"MEAN_ANOMALY":22.3163,"EPHEMERIS_TYPE":0,"CLASSIFICATION_TYPE":"U","NORAD_CAT_ID":58247,"ELEMENT_SET_NO":999,"REV_AT_EPOCH":577,"BSTAR":0.046917107,"MEAN_MOTION_DOT":0.01236111,"MEAN_MOTION_DDOT":0}]
